{"type":"FeatureCollection","features":[{"type":"Feature","geometry":{"type":"Polygon","coordinates":[[[8.624129295349121,14.236980438232422],[8.559700012207031,14.742449760437012],[8.809452056884766,14.734430313110352],[8.808412551879883,14.636520385742188],[8.919304847717285,14.638500213623047],[9.087138175964355,14.63049030303955],[9.09996509552002,14.244830131530762],[9.015047073364258,14.241840362548828],[9.008951187133789,13.995059967041016],[8.818140029907227,14.002050399780273],[8.653305053710938,14.008090019226074],[8.642902374267578,14.089710235595703],[8.63259220123291,14.1705904006958],[8.625825881958008,14.22367000579834],[8.624129295349121,14.236980438232422]]]},"properties":{"id":1,"crime":15.72598,"centre":[8.827218469203908,14.369076018912063],"z":-1.1716356150379357,"lag":-0.6288802432695759,"local_i":0.7217813785551247,"p_sim":0.1808,"quadrant":3,"neighbors":[2,3]}},{"type":"Feature","geometry":{"type":"Polygon","coordinates":[[[8.252790451049805,14.236940383911133],[8.282757759094238,14.229940414428711],[8.330711364746094,14.229940414428711],[8.383658409118652,14.228930473327637],[8.444600105285645,14.228919982910156],[8.544504165649414,14.23490047454834],[8.624129295349121,14.236980438232422],[8.625825881958008,14.22367000579834],[8.63259220123291,14.1705904006958],[8.642902374267578,14.089710235595703],[8.653305053710938,14.008090019226074],[8.662188529968262,13.909899711608887],[8.666550636291504,13.861700057983398],[8.605281829833984,13.839249610900879],[8.579310417175293,13.8412504196167],[8.562577247619629,13.84253978729248],[8.540358543395996,13.842399597167969],[8.516386985778809,13.841679573059082],[8.502935409545898,13.838729858398438],[8.473407745361328,13.832269668579102],[8.45949935913086,13.82034969329834],[8.431432723999023,13.793310165405273],[8.415447235107422,13.79030990600586],[8.387155532836914,13.788969993591309],[8.37348747253418,13.78831958770752],[8.323546409606934,13.786080360412598],[8.284571647644043,13.784330368041992],[8.291547775268555,13.74137020111084],[8.229602813720703,13.72739028930664],[8.22661304473877,13.744379997253418],[8.215643882751465,13.794329643249512],[8.198686599731445,13.858280181884766],[8.16972541809082,13.883259773254395],[8.12777042388916,13.89225959777832],[8.093802452087402,13.891260147094727],[8.063838005065918,13.90526008605957],[8.044872283935547,13.943220138549805],[8.037888526916504,13.96720027923584],[7.999115943908691,14.02457046508789],[7.99936580657959,14.0349702835083],[8.003013610839844,14.187020301818848],[7.950088977813721,14.243969917297363],[8.111939430236816,14.263930320739746],[8.147891998291016,14.232959747314453],[8.181855201721191,14.225959777832031],[8.20982837677002,14.226949691772461],[8.252790451049805,14.236940383911133]]]},"properties":{"id":2,"crime":18.801754,"centre":[8.332658372724923,14.031624006323966],"z":-0.9859058126873261,"lag":-0.536336236647856,"local_i":0.5179856456482939,"p_sim":0.1638,"quadrant":3,"neighbors":[1,3,4]}},{"type":"Feature","geometry":{"type":"Polygon","coordinates":[[[8.653305053710938,14.008090019226074],[8.818140029907227,14.002050399780273],[9.008951187133789,13.995059967041016],[9.008928298950195,13.9381103515625],[9.34359073638916,13.913080215454102],[9.351485252380371,13.67529010772705],[9.298501014709473,13.589380264282227],[9.273821830749512,13.588560104370117],[9.244555473327637,13.59138011932373],[9.24254322052002,13.558409690856934],[9.196581840515137,13.544429779052734],[9.190605163574219,13.586389541625977],[9.166626930236816,13.581399917602539],[9.161684036254883,13.708290100097656],[8.909939765930176,13.715530395507812],[8.677577018737793,13.722209930419922],[8.666550636291504,13.861700057983398],[8.662188529968262,13.909899711608887],[8.653305053710938,14.008090019226074]]]},"properties":{"id":3,"crime":30.626781,"centre":[9.0122654093717,13.819719079969147],"z":-0.27185467385182566,"lag":-0.3452239401731032,"local_i":0.09193542040320114,"p_sim":0.2397,"quadrant":3,"neighbors":[1,2,4,5]}},{"type":"Feature","geometry":{"type":"Polygon","coordinates":[[[8.45949935913086,13.82034969329834],[8.473407745361328,13.832269668579102],[8.502935409545898,13.838729858398438],[8.516386985778809,13.841679573059082],[8.540358543395996,13.842399597167969],[8.562577247619629,13.84253978729248],[8.579310417175293,13.8412504196167],[8.605281829833984,13.839249610900879],[8.666550636291504,13.861700057983398],[8.677577018737793,13.722209930419922],[8.685274124145508,13.639519691467285],[8.628178596496582,13.639459609985352],[8.588301658630371,13.641819953918457],[8.571109771728516,13.64126968383789],[8.547515869140625,13.643819808959961],[8.537267684936523,13.644430160522461],[8.505298614501953,13.644430160522461],[8.459343910217285,13.644430160522461],[8.450570106506348,13.60453987121582],[8.439335823059082,13.605520248413086],[8.380410194396973,13.616470336914062],[8.385412216186523,13.63444995880127],[8.316472053527832,13.616479873657227],[8.294443130493164,13.604570388793945],[8.279500007629395,13.596500396728516],[8.247527122497559,13.586509704589844],[8.201574325561523,13.591509819030762],[8.201583862304688,13.614489555358887],[8.19859504699707,13.635479927062988],[8.233589172363281,13.703410148620605],[8.229602813720703,13.72739028930664],[8.291547775268555,13.74137020111084],[8.284571647644043,13.784330368041992],[8.323546409606934,13.786080360412598],[8.37348747253418,13.78831958770752],[8.387155532836914,13.788969993591309],[8.415447235107422,13.79030990600586],[8.431432723999023,13.793310165405273],[8.45949935913086,13.82034969329834]]]},"properties":{"id":4,"crime":32.38776,"centre":[8.460800893307436,13.716962170228141],"z":-0.1655184210538067,"lag":-0.029126465788657574,"local_i":0.004722579554171091,"p_sim":0.4714,"quadrant":3,"neighbors":[2,3,5,8]}},{"type":"Feature","geometry":{"type":"Polygon","coordinates":[[[8.685274124145508,13.639519691467285],[8.677577018737793,13.722209930419922],[8.909939765930176,13.715530395507812],[9.161684036254883,13.708290100097656],[9.166626930236816,13.581399917602539],[9.190605163574219,13.586389541625977],[9.196581840515137,13.544429779052734],[9.24254322052002,13.558409690856934],[9.244555473327637,13.59138011932373],[9.273821830749512,13.588560104370117],[9.298501014709473,13.589380264282227],[9.310471534729004,13.54541015625],[9.401384353637695,13.550399780273438],[9.333296775817871,13.272419929504395],[9.23626708984375,12.876279830932617],[9.233386993408203,12.86400032043457],[8.943572998046875,12.86221981048584],[8.757728576660156,12.861089706420898],[8.733969688415527,13.116339683532715],[8.685274124145508,13.639519691467285]]]},"properties":{"id":5,"crime":50.73151,"centre":[9.007982127497685,13.296366430537292],"z":0.9421640880866552,"lag":0.3222433635404801,"local_i":0.29741008138980546,"p_sim":0.1566,"quadrant":1,"neighbors":[3,4,6,8,9,11,15,16]}},{"type":"Feature","geometry":{"type":"Polygon","coordinates":[[[9.401384353637695,13.550399780273438],[9.43441104888916,13.694270133972168],[9.605246543884277,13.698240280151367],[9.651198387145996,13.692239761352539],[9.687166213989258,13.697230339050293],[9.686145782470703,13.645279884338379],[9.845992088317871,13.652250289916992],[10.050789833068848,13.650230407714844],[10.103719711303711,13.603260040283203],[10.175629615783691,13.565290451049805],[10.1806001663208,13.482359886169434],[10.16759967803955,13.471369743347168],[10.153610229492188,13.454389572143555],[10.1356201171875,13.439399719238281],[10.119629859924316,13.429409980773926],[10.121600151062012,13.344490051269531],[10.096619606018066,13.342490196228027],[10.085630416870117,13.333499908447266],[10.05265998840332,13.33650016784668],[10.027669906616211,13.298540115356445],[9.772106170654297,13.292110443115234],[9.677009582519531,13.296589851379395],[9.67100715637207,13.27361011505127],[9.333296775817871,13.272419929504395],[9.401384353637695,13.550399780273438]]]},"properties":{"id":6,"crime":26.066658,"centre":[9.739925828001203,13.474632743210716],"z":-0.5472164993580134,"lag":0.33180746040686354,"local_i":-0.17786499619074278,"p_sim":0.3251,"quadrant":2,"neighbors":[9,5]}},{"type":"Feature","geometry":{"type":"Polygon","coordinates":[[[8.037740707397461,13.60752010345459],[8.062715530395508,13.604519844055176],[8.072694778442383,13.58053970336914],[8.115653038024902,13.579540252685547],[8.130637168884277,13.576539993286133],[8.1974515914917,13.575770378112793],[8.189590454101562,13.545760154724121],[8.179450035095215,13.529829978942871],[8.164705276489258,13.511059761047363],[8.14012622833252,13.479769706726074],[8.128536224365234,13.470100402832031],[8.121718406677246,13.461039543151855],[8.109848022460938,13.432640075683594],[8.10498046875,13.420989990234375],[8.181536674499512,13.415909767150879],[8.293397903442383,13.408490180969238],[8.380322456359863,13.40466022491455],[8.456572532653809,13.104069709777832],[8.425149917602539,13.09391975402832],[8.412152290344238,13.068949699401855],[8.351269721984863,13.066499710083008],[8.2882719039917,13.063969612121582],[8.28026294708252,13.026000022888184],[8.232307434082031,13.020009994506836],[8.22030258178711,12.979049682617188],[8.154367446899414,12.978059768676758],[8.145203590393066,12.942020416259766],[8.104400634765625,12.943050384521484],[8.062442779541016,12.944100379943848],[8.052460670471191,12.963089942932129],[8.052496910095215,13.052009582519531],[8.048531532287598,13.129940032958984],[8.032543182373047,13.117950439453125],[8.01356029510498,13.114959716796875],[7.989583969116211,13.115960121154785],[7.962619781494141,13.137940406799316],[7.923679828643799,13.191900253295898],[7.898725986480713,13.243860244750977],[7.88774299621582,13.25784969329834],[7.871758937835693,13.25885009765625],[7.868794918060303,13.338780403137207],[7.866809844970703,13.371749877929688],[7.851837158203125,13.40073013305664],[7.844857215881348,13.432700157165527],[7.84089183807373,13.50862979888916],[7.824925899505615,13.552599906921387],[7.803965091705322,13.596559524536133],[7.801973819732666,13.61553955078125],[7.90187406539917,13.608539581298828],[7.90288782119751,13.644510269165039],[7.9967942237854,13.63949966430664],[7.998781204223633,13.614520072937012],[8.037740707397461,13.60752010345459]]]},"properties":{"id":7,"crime":0.178269,"centre":[8.118750060628729,13.295703867053538],"z":-2.1104800460768867,"lag":0.8815943931951549,"local_i":-1.8226162046416023,"p_sim":0.0399,"quadrant":2,"neighbors":[12,13,14,8]}},{"type":"Feature","geometry":{"type":"Polygon","coordinates":[[[8.247527122497559,13.586509704589844],[8.279500007629395,13.596500396728516],[8.294443130493164,13.604570388793945],[8.316472053527832,13.616479873657227],[8.385412216186523,13.63444995880127],[8.380410194396973,13.616470336914062],[8.439335823059082,13.605520248413086],[8.450570106506348,13.60453987121582],[8.459343910217285,13.644430160522461],[8.505298614501953,13.644430160522461],[8.537267684936523,13.644430160522461],[8.547515869140625,13.643819808959961],[8.571109771728516,13.64126968383789],[8.588301658630371,13.641819953918457],[8.628178596496582,13.639459609985352],[8.685274124145508,13.639519691467285],[8.733969688415527,13.116339683532715],[8.651877403259277,13.113670349121094],[8.596989631652832,13.111889839172363],[8.585997581481934,13.106889724731445],[8.517032623291016,13.105389595031738],[8.456572532653809,13.104069709777832],[8.380322456359863,13.40466022491455],[8.293397903442383,13.408490180969238],[8.181536674499512,13.415909767150879],[8.10498046875,13.420989990234375],[8.109848022460938,13.432640075683594],[8.121718406677246,13.461039543151855],[8.128536224365234,13.470100402832031],[8.14012622833252,13.479769706726074],[8.164705276489258,13.511059761047363],[8.179450035095215,13.529829978942871],[8.189590454101562,13.545760154724121],[8.1974515914917,13.575770378112793],[8.201574325561523,13.591509819030762],[8.247527122497559,13.586509704589844]]]},"properties":{"id":8,"crime":38.425858,"centre":[8.496488171957548,13.402612361972409],"z":0.19909053529786636,"lag":0.3846693053585074,"local_i":0.07502107877533094,"p_sim":0.1666,"quadrant":1,"neighbors":[4,5,7,11,12,13]}},{"type":"Feature","geometry":{"type":"Polygon","coordinates":[[[9.333296775817871,13.272419929504395],[9.67100715637207,13.27361011505127],[9.677009582519531,13.296589851379395],[9.772106170654297,13.292110443115234],[10.027669906616211,13.298540115356445],[9.950613975524902,12.983830451965332],[10.004560470581055,12.976829528808594],[10.082509994506836,13.033769607543945],[10.083649635314941,13.019869804382324],[10.086819648742676,12.981430053710938],[10.089170455932617,12.952810287475586],[10.091629981994629,12.923040390014648],[10.093509674072266,12.900219917297363],[10.095430374145508,12.876899719238281],[10.015439987182617,12.72404956817627],[9.763668060302734,12.67313003540039],[9.723674774169922,12.595199584960938],[9.555828094482422,12.595190048217773],[9.471497535705566,12.595709800720215],[9.386005401611328,12.596240043640137],[9.383021354675293,12.627209663391113],[9.258048057556152,12.630610466003418],[9.124277114868164,12.63424015045166],[9.146787643432617,12.658740043640137],[9.166311264038086,12.679980278015137],[9.187246322631836,12.7091703414917],[9.206208229064941,12.75883960723877],[9.213532447814941,12.778030395507812],[9.220885276794434,12.805720329284668],[9.233386993408203,12.86400032043457],[9.23626708984375,12.876279830932617],[9.333296775817871,13.272419929504395]]]},"properties":{"id":9,"crime":30.515917,"centre":[9.630793442508981,12.942724931765364],"z":-0.2785491672729281,"lag":0.10983727540163188,"local_i":-0.029970692178271193,"p_sim":0.3866,"quadrant":2,"neighbors":[5,6,10,15,20,22,25,26]}},{"type":"Feature","geometry":{"type":"Polygon","coordinates":[[[10.082509994506836,13.033769607543945],[10.092499732971191,13.052749633789062],[10.126489639282227,13.090709686279297],[10.182459831237793,13.157649993896484],[10.267419815063477,13.254549980163574],[10.289389610290527,13.247550010681152],[10.316360473632812,13.244549751281738],[10.33234977722168,13.23954963684082],[10.368260383605957,13.246430397033691],[10.39428997039795,13.246540069580078],[10.417269706726074,13.247540473937988],[10.450240135192871,13.251529693603516],[10.4752197265625,13.261520385742188],[10.4752197265625,13.272509574890137],[10.534159660339355,13.271499633789062],[10.566129684448242,13.271499633789062],[10.603090286254883,13.26550006866455],[10.632060050964355,13.263489723205566],[10.639049530029297,13.24450969696045],[10.640040397644043,13.21953010559082],[10.649020195007324,13.199549674987793],[10.646010398864746,13.176569938659668],[10.64700984954834,13.15758991241455],[10.645999908447266,13.144599914550781],[10.637999534606934,13.129610061645508],[10.63899040222168,13.104630470275879],[10.631979942321777,13.070659637451172],[10.62697982788086,13.051679611206055],[10.627969741821289,13.026700019836426],[10.631959915161133,13.008720397949219],[10.633950233459473,12.983739852905273],[10.62893009185791,12.945779800415039],[10.639909744262695,12.918800354003906],[10.637900352478027,12.890819549560547],[10.645890235900879,12.865839958190918],[10.647870063781738,12.842860221862793],[10.649680137634277,12.830180168151855],[10.501099586486816,12.805319786071777],[10.356599807739258,12.781140327453613],[10.178409576416016,12.751319885253906],[10.015439987182617,12.72404956817627],[10.095430374145508,12.876899719238281],[10.093509674072266,12.900219917297363],[10.091629981994629,12.923040390014648],[10.089170455932617,12.952810287475586],[10.086819648742676,12.981430053710938],[10.083649635314941,13.019869804382324],[10.082509994506836,13.033769607543945]]]},"properties":{"id":10,"crime":34.000835,"centre":[10.366382709801057,13.00188936025309],"z":-0.06811331231476737,"lag":-0.5917969802713036,"local_i":0.039486614737131956,"p_sim":0.1139,"quadrant":3,"neighbors":[17,9,20,22]}},{"type":"Feature","geometry":{"type":"Polygon","coordinates":[[[8.585997581481934,13.106889724731445],[8.596989631652832,13.111889839172363],[8.651877403259277,13.113670349121094],[8.733969688415527,13.116339683532715],[8.757728576660156,12.861089706420898],[8.700782775878906,12.857099533081055],[8.693771362304688,12.811140060424805],[8.632829666137695,12.810150146484375],[8.629888534545898,12.945030212402344],[8.572946548461914,12.950030326843262],[8.585997581481934,13.106889724731445]]]},"properties":{"id":11,"crime":62.275448,"centre":[8.669735412857046,12.98012156123324],"z":1.6392417417399117,"lag":0.8893840241964017,"local_i":1.4281620410442728,"p_sim":0.0126,"quadrant":1,"neighbors":[5,8,12,15,16]}},{"type":"Feature","geometry":{"type":"Polygon","coordinates":[[[8.456572532653809,13.104069709777832],[8.517032623291016,13.105389595031738],[8.585997581481934,13.106889724731445],[8.572946548461914,12.950030326843262],[8.629888534545898,12.945030212402344],[8.632829666137695,12.810150146484375],[8.582889556884766,12.809769630432129],[8.50916576385498,12.809200286865234],[8.487373352050781,12.930660247802734],[8.456572532653809,13.104069709777832]]]},"properties":{"id":12,"crime":56.705669,"centre":[8.544995589641779,12.9531256839822],"z":1.30291210477485,"lag":0.49040058361034183,"local_i":0.6259090839914111,"p_sim":0.0937,"quadrant":1,"neighbors":[7,8,11,13,14,16]}},{"type":"Feature","geometry":{"type":"Polygon","coordinates":[[[8.145203590393066,12.942020416259766],[8.154367446899414,12.978059768676758],[8.22030258178711,12.979049682617188],[8.232307434082031,13.020009994506836],[8.28026294708252,13.026000022888184],[8.2882719039917,13.063969612121582],[8.351269721984863,13.066499710083008],[8.412152290344238,13.068949699401855],[8.425149917602539,13.09391975402832],[8.456572532653809,13.104069709777832],[8.487373352050781,12.930660247802734],[8.456042289733887,12.931710243225098],[8.402054786682129,12.9335298538208],[8.337125778198242,12.935720443725586],[8.245318412780762,12.938819885253906],[8.145203590393066,12.942020416259766]]]},"properties":{"id":13,"crime":46.716129,"centre":[8.349223482851055,12.996094141102331],"z":0.6996963646803215,"lag":0.17905029050585292,"local_i":0.12272408557900487,"p_sim":0.353,"quadrant":1,"neighbors":[12,14,7,8]}},{"type":"Feature","geometry":{"type":"Polygon","coordinates":[[[8.062442779541016,12.944100379943848],[8.104400634765625,12.943050384521484],[8.145203590393066,12.942020416259766],[8.245318412780762,12.938819885253906],[8.337125778198242,12.935720443725586],[8.402054786682129,12.9335298538208],[8.456042289733887,12.931710243225098],[8.487373352050781,12.930660247802734],[8.50916576385498,12.809200286865234],[8.512937545776367,12.788180351257324],[8.478970527648926,12.788189888000488],[8.431012153625488,12.788060188293457],[8.259181022644043,12.787599563598633],[8.122319221496582,12.787229537963867],[8.062442779541016,12.944100379943848]]]},"properties":{"id":14,"crime":57.066132,"centre":[8.292701516920957,12.863707688216895],"z":1.3246785680275819,"lag":0.4644621389167098,"local_i":0.6027066524896801,"p_sim":0.1062,"quadrant":1,"neighbors":[18,19,7,12,13,16]}},{"type":"Feature","geometry":{"type":"Polygon","coordinates":[[[8.757728576660156,12.861089706420898],[8.943572998046875,12.86221981048584],[9.233386993408203,12.86400032043457],[9.220885276794434,12.805720329284668],[9.213532447814941,12.778030395507812],[9.206208229064941,12.75883960723877],[9.187246322631836,12.7091703414917],[9.166311264038086,12.679980278015137],[9.146787643432617,12.658740043640137],[9.124277114868164,12.63424015045166],[8.913296699523926,12.609800338745117],[8.855527877807617,12.606300354003906],[8.785566329956055,12.532369613647461],[8.777865409851074,12.628029823303223],[8.757728576660156,12.861089706420898]]]},"properties":{"id":15,"crime":48.585487,"centre":[8.973462206070094,12.741586740380376],"z":0.81257705482938,"lag":0.9043375091110054,"local_i":0.7198470952409716,"p_sim":0.0077,"quadrant":1,"neighbors":[5,9,25,11,26,16]}},{"type":"Feature","geometry":{"type":"Polygon","coordinates":[[[8.632829666137695,12.810150146484375],[8.693771362304688,12.811140060424805],[8.700782775878906,12.857099533081055],[8.757728576660156,12.861089706420898],[8.777865409851074,12.628029823303223],[8.785566329956055,12.532369613647461],[8.75838565826416,12.49685001373291],[8.726524353027344,12.455209732055664],[8.709477424621582,12.4273099899292],[8.69460678100586,12.417490005493164],[8.657632827758789,12.391510009765625],[8.605761528015137,12.367939949035645],[8.58968734741211,12.361550331115723],[8.512937545776367,12.788180351257324],[8.50916576385498,12.809200286865234],[8.582889556884766,12.809769630432129],[8.632829666137695,12.810150146484375]]]},"properties":{"id":16,"crime":54.838711,"centre":[8.655866335560422,12.62731580875412],"z":1.1901763379932566,"lag":1.0408304679119795,"local_i":1.2134907377351392,"p_sim":0.0004,"quadrant":1,"neighbors":[5,11,12,14,15,18,24,25]}},{"type":"Feature","geometry":{"type":"Polygon","coordinates":[[[10.356599807739258,12.781140327453613],[10.501099586486816,12.805319786071777],[10.649680137634277,12.830180168151855],[10.70281982421875,12.838859558105469],[10.709790229797363,12.774909973144531],[10.664819717407227,12.762929916381836],[10.6697998046875,12.703980445861816],[10.667770385742188,12.648030281066895],[10.666970252990723,12.595029830932617],[10.667340278625488,12.580109596252441],[10.669699668884277,12.483180046081543],[10.42175006866455,12.44025993347168],[10.420989990234375,12.578129768371582],[10.356060028076172,12.598119735717773],[10.356389999389648,12.712010383605957],[10.356599807739258,12.781140327453613]]]},"properties":{"id":17,"crime":36.868774,"centre":[10.528621192777077,12.647475597059021],"z":0.10506642833705065,"lag":-1.028821768212298,"local_i":-0.10588861575328182,"p_sim":0.0331,"quadrant":4,"neighbors":[10,20,23]}},{"type":"Feature","geometry":{"type":"Polygon","coordinates":[[[8.431012153625488,12.788060188293457],[8.478970527648926,12.788189888000488],[8.512937545776367,12.788180351257324],[8.58968734741211,12.361550331115723],[8.565507888793945,12.355330467224121],[8.554715156555176,12.355330467224121],[8.523073196411133,12.355310440063477],[8.502638816833496,12.357080459594727],[8.4813814163208,12.362910270690918],[8.438838958740234,12.373559951782227],[8.406447410583496,12.396730422973633],[8.391569137573242,12.407380104064941],[8.369997024536133,12.428179740905762],[8.358473777770996,12.445659637451172],[8.423884391784668,12.448490142822266],[8.431012153625488,12.788060188293457]]]},"properties":{"id":18,"crime":43.962486,"centre":[8.487918125725194,12.545342471590063],"z":0.5334183578650806,"lag":0.9693166735797782,"local_i":0.5064992407564094,"p_sim":0.0212,"quadrant":1,"neighbors":[19,16,14,24]}},{"type":"Feature","geometry":{"type":"Polygon","coordinates":[[[8.122319221496582,12.787229537963867],[8.259181022644043,12.787599563598633],[8.431012153625488,12.788060188293457],[8.423884391784668,12.448490142822266],[8.358473777770996,12.445659637451172],[8.350508689880371,12.481929779052734],[8.347976684570312,12.493459701538086],[8.3489990234375,12.547419548034668],[8.33201789855957,12.547419548034668],[8.30504322052002,12.550419807434082],[8.301017761230469,12.593090057373047],[8.299444198608398,12.609780311584473],[8.296090126037598,12.645339965820312],[8.223162651062012,12.645339965820312],[8.148235321044922,12.645350456237793],[8.13826847076416,12.703310012817383],[8.138282775878906,12.737279891967773],[8.122319221496582,12.787229537963867]]]},"properties":{"id":19,"crime":54.521965,"centre":[8.312367703365632,12.666720813263051],"z":1.1710497142636371,"lag":0.6831529999757666,"local_i":0.7836794697991525,"p_sim":0.1132,"quadrant":1,"neighbors":[18,14,24]}},{"type":"Feature","geometry":{"type":"Polygon","coordinates":[[[10.015439987182617,12.72404956817627],[10.178409576416016,12.751319885253906],[10.356599807739258,12.781140327453613],[10.356389999389648,12.712010383605957],[10.356060028076172,12.598119735717773],[10.420989990234375,12.578129768371582],[10.42175006866455,12.44025993347168],[10.424249649047852,11.990639686584473],[10.425640106201172,11.741860389709473],[10.252799987792969,11.742819786071777],[10.05659008026123,11.74390983581543],[10.049909591674805,11.76294994354248],[10.049750328063965,11.778960227966309],[10.04928970336914,11.822830200195312],[10.048910140991211,11.858799934387207],[10.04207992553711,11.912759780883789],[10.02422046661377,11.962309837341309],[10.007160186767578,12.009679794311523],[9.991960525512695,12.031510353088379],[9.956293106079102,12.08275032043457],[9.914779663085938,12.142390251159668],[9.899951934814453,12.163689613342285],[9.892878532409668,12.173850059509277],[9.884350776672363,12.191530227661133],[10.001230239868164,12.170539855957031],[9.96633243560791,12.341389656066895],[9.841083526611328,12.314740180969238],[9.935688018798828,12.501870155334473],[9.941193580627441,12.512129783630371],[9.93346881866455,12.599410057067871],[10.015439987182617,12.72404956817627]]]},"properties":{"id":20,"crime":0.223797,"centre":[10.190581526179413,12.256899149288648],"z":-2.107730849796075,"lag":-0.16197978492109696,"local_i":0.33444224299251846,"p_sim":0.2267,"quadrant":3,"neighbors":[33,35,40,9,10,17,22,23,27,32]}},{"type":"Feature","geometry":{"type":"Polygon","coordinates":[[[7.842434883117676,12.405599594116211],[8.131139755249023,12.373600006103516],[8.136807441711426,12.348549842834473],[8.141800880432129,12.326470375061035],[8.14834976196289,12.298720359802246],[8.157790184020996,12.281220436096191],[8.174397468566895,12.2504301071167],[8.190520286560059,12.237640380859375],[8.225326538085938,12.206859588623047],[8.25028133392334,12.194430351257324],[8.310224533081055,12.156929969787598],[8.32612133026123,12.153280258178711],[8.358863830566406,12.145950317382812],[8.408769607543945,12.134770393371582],[8.43419361114502,12.139209747314453],[8.471713066101074,12.145750045776367],[8.495033264160156,12.13776969909668],[8.505514144897461,12.128210067749023],[8.519205093383789,12.115229606628418],[8.538623809814453,12.088789939880371],[8.544462203979492,12.073599815368652],[8.563572883605957,12.023850440979004],[8.525978088378906,11.924659729003906],[8.517660140991211,11.91471004486084],[8.471677780151367,11.863730430603027],[8.455998420715332,11.847610473632812],[8.412508010864258,11.807350158691406],[8.404298782348633,11.800470352172852],[8.386432647705078,11.785490036010742],[8.37365436553955,11.774089813232422],[8.282732009887695,11.74413013458252],[8.256792068481445,11.828060150146484],[8.103923797607422,11.785120010375977],[8.120859146118164,11.670220375061035],[7.733179092407227,11.527389526367188],[7.688279151916504,11.66327953338623],[7.717282772064209,11.741209983825684],[7.580474853515625,11.882100105285645],[7.637434005737305,11.917059898376465],[7.616511821746826,12.057939529418945],[7.40372896194458,12.080949783325195],[7.404763221740723,12.164870262145996],[7.323862075805664,12.21183967590332],[7.19602108001709,12.295780181884766],[7.135107040405273,12.359729766845703],[7.108152866363525,12.406700134277344],[7.092213153839111,12.51261043548584],[7.06132984161377,12.725419998168945],[7.143249988555908,12.724410057067871],[7.155218124389648,12.674460411071777],[7.173169136047363,12.598520278930664],[7.206113815307617,12.544560432434082],[7.27003812789917,12.510580062866211],[7.341958045959473,12.486599922180176],[7.429862976074219,12.46660041809082],[7.459833145141602,12.463600158691406],[7.481781005859375,12.389659881591797],[7.498770236968994,12.403650283813477],[7.516755104064941,12.409640312194824],[7.548725128173828,12.412630081176758],[7.559714794158936,12.414629936218262],[7.55869197845459,12.356679916381836],[7.569672107696533,12.334699630737305],[7.616611003875732,12.29872989654541],[7.669570922851562,12.327690124511719],[7.721512794494629,12.307709693908691],[7.708548069000244,12.36266040802002],[7.639626979827881,12.389639854431152],[7.646636009216309,12.430609703063965],[7.842434883117676,12.405599594116211]]]},"properties":{"id":21,"crime":40.074074,"centre":[7.847423618980444,12.084997322022751],"z":0.2986176240602765,"lag":0.5188552703357086,"local_i":0.1517773009555609,"p_sim":0.1873,"quadrant":1,"neighbors":[34,30,24]}},{"type":"Feature","geometry":{"type":"Polygon","coordinates":[[[9.386005401611328,12.596240043640137],[9.471497535705566,12.595709800720215],[9.555828094482422,12.595190048217773],[9.723674774169922,12.595199584960938],[9.763668060302734,12.67313003540039],[10.015439987182617,12.72404956817627],[9.93346881866455,12.599410057067871],[9.941193580627441,12.512129783630371],[9.935688018798828,12.501870155334473],[9.841083526611328,12.314740180969238],[9.656930923461914,12.274029731750488],[9.468775749206543,12.234550476074219],[9.394844055175781,12.22655963897705],[9.386472702026367,12.34727954864502],[9.38573932647705,12.361639976501465],[9.380951881408691,12.45536994934082],[9.357977867126465,12.462360382080078],[9.35901927947998,12.56527042388916],[9.386005401611328,12.596240043640137]]]},"properties":{"id":22,"crime":33.705048,"centre":[9.655244367498366,12.462765864102984],"z":-0.08597433235326193,"lag":0.046813897065352605,"local_i":-0.00394265490127153,"p_sim":0.4575,"quadrant":2,"neighbors":[20,9,10,27,28,26]}},{"type":"Feature","geometry":{"type":"Polygon","coordinates":[[[10.667770385742188,12.648030281066895],[10.776670455932617,12.652009963989258],[10.88755989074707,12.644009590148926],[10.888489723205566,12.49213981628418],[10.884440422058105,12.34926986694336],[10.884380340576172,12.19340991973877],[10.876319885253906,12.037540435791016],[10.640899658203125,12.0131196975708],[10.424249649047852,11.990639686584473],[10.42175006866455,12.44025993347168],[10.669699668884277,12.483180046081543],[10.667340278625488,12.580109596252441],[10.666970252990723,12.595029830932617],[10.667770385742188,12.648030281066895]]]},"properties":{"id":23,"crime":20.048504,"centre":[10.671381108158549,12.291571317666135],"z":-0.910621142526052,"lag":-0.9892692223789986,"local_i":0.8824647864966102,"p_sim":0.037,"quadrant":3,"neighbors":[17,20,32]}},{"type":"Feature","geometry":{"type":"Polygon","coordinates":[[[8.148235321044922,12.645350456237793],[8.223162651062012,12.645339965820312],[8.296090126037598,12.645339965820312],[8.299444198608398,12.609780311584473],[8.301017761230469,12.593090057373047],[8.30504322052002,12.550419807434082],[8.33201789855957,12.547419548034668],[8.3489990234375,12.547419548034668],[8.347976684570312,12.493459701538086],[8.350508689880371,12.481929779052734],[8.358473777770996,12.445659637451172],[8.369997024536133,12.428179740905762],[8.391569137573242,12.407380104064941],[8.406447410583496,12.396730422973633],[8.438838958740234,12.373559951782227],[8.4813814163208,12.362910270690918],[8.502638816833496,12.357080459594727],[8.523073196411133,12.355310440063477],[8.554715156555176,12.355330467224121],[8.565507888793945,12.355330467224121],[8.58968734741211,12.361550331115723],[8.605761528015137,12.367939949035645],[8.657632827758789,12.391510009765625],[8.69460678100586,12.417490005493164],[8.709477424621582,12.4273099899292],[8.708919525146484,12.39048957824707],[8.7083158493042,12.350500106811523],[8.707547187805176,12.302590370178223],[8.767485618591309,12.29557991027832],[8.758467674255371,12.230640411376953],[8.784432411193848,12.206660270690918],[8.790392875671387,12.12572956085205],[8.643799781799316,12.102089881896973],[8.538623809814453,12.088789939880371],[8.519205093383789,12.115229606628418],[8.505514144897461,12.128210067749023],[8.495033264160156,12.13776969909668],[8.471713066101074,12.145750045776367],[8.43419361114502,12.139209747314453],[8.408769607543945,12.134770393371582],[8.358863830566406,12.145950317382812],[8.32612133026123,12.153280258178711],[8.310224533081055,12.156929969787598],[8.25028133392334,12.194430351257324],[8.225326538085938,12.206859588623047],[8.190520286560059,12.237640380859375],[8.174397468566895,12.2504301071167],[8.157790184020996,12.281220436096191],[8.14834976196289,12.298720359802246],[8.141800880432129,12.326470375061035],[8.136807441711426,12.348549842834473],[8.131139755249023,12.373600006103516],[8.137151718139648,12.416560173034668],[8.14915943145752,12.462510108947754],[8.160175323486328,12.528459548950195],[8.155200958251953,12.5794095993042],[8.147226333618164,12.619379997253418],[8.148235321044922,12.645350456237793]]]},"properties":{"id":24,"crime":38.297871,"centre":[8.420744068273082,12.318013434287653],"z":0.19136207403463731,"lag":1.1942128333383586,"local_i":0.2238632273891354,"p_sim":0.0002,"quadrant":1,"neighbors":[18,19,21,25,29,30,16]}},{"type":"Feature","geometry":{"type":"Polygon","coordinates":[[[8.785566329956055,12.532369613647461],[8.855527877807617,12.606300354003906],[8.913296699523926,12.609800338745117],[9.124277114868164,12.63424015045166],[9.124981880187988,12.587260246276855],[9.127169609069824,12.441459655761719],[9.129522323608398,12.284629821777344],[9.131059646606445,12.182160377502441],[9.116094589233398,12.17965030670166],[8.95518970489502,12.153010368347168],[8.790392875671387,12.12572956085205],[8.784432411193848,12.206660270690918],[8.758467674255371,12.230640411376953],[8.767485618591309,12.29557991027832],[8.707547187805176,12.302590370178223],[8.7083158493042,12.350500106811523],[8.708919525146484,12.39048957824707],[8.709477424621582,12.4273099899292],[8.726524353027344,12.455209732055664],[8.75838565826416,12.49685001373291],[8.785566329956055,12.532369613647461]]]},"properties":{"id":25,"crime":61.299175,"centre":[8.938751825549426,12.380509826386751],"z":1.58028975393774,"lag":0.8962560110021884,"local_i":1.3874392076001985,"p_sim":0.0015,"quadrant":1,"neighbors":[9,15,16,24,26,28,29,30]}},{"type":"Feature","geometry":{"type":"Polygon","coordinates":[[[9.124277114868164,12.63424015045166],[9.258048057556152,12.630610466003418],[9.383021354675293,12.627209663391113],[9.386005401611328,12.596240043640137],[9.35901927947998,12.56527042388916],[9.357977867126465,12.462360382080078],[9.380951881408691,12.45536994934082],[9.38573932647705,12.361639976501465],[9.386472702026367,12.34727954864502],[9.394844055175781,12.22655963897705],[9.25829792022705,12.203579902648926],[9.131059646606445,12.182160377502441],[9.129522323608398,12.284629821777344],[9.127169609069824,12.441459655761719],[9.124981880187988,12.587260246276855],[9.124277114868164,12.63424015045166]]]},"properties":{"id":26,"crime":40.969742,"centre":[9.250921130765516,12.413783516339139],"z":0.3527023001813974,"lag":0.81522327500631,"local_i":0.2816631421284613,"p_sim":0.0177,"quadrant":1,"neighbors":[22,9,25,28,29,15]}},{"type":"Feature","geometry":{"type":"Polygon","coordinates":[[[9.468775749206543,12.234550476074219],[9.656930923461914,12.274029731750488],[9.841083526611328,12.314740180969238],[9.96633243560791,12.341389656066895],[10.001230239868164,12.170539855957031],[9.884350776672363,12.191530227661133],[9.892878532409668,12.173850059509277],[9.899951934814453,12.163689613342285],[9.914779663085938,12.142390251159668],[9.956293106079102,12.08275032043457],[9.991960525512695,12.031510353088379],[10.007160186767578,12.009679794311523],[9.755396842956543,12.004929542541504],[9.480667114257812,12.002750396728516],[9.481962203979492,12.065779685974121],[9.478416442871094,12.161820411682129],[9.468775749206543,12.234550476074219]]]},"properties":{"id":27,"crime":52.79443,"centre":[9.737004148455055,12.149692840219398],"z":1.0667329685912434,"lag":-0.1162180125049416,"local_i":-0.1214435123100447,"p_sim":0.4259,"quadrant":4,"neighbors":[33,28,20,22]}},{"type":"Feature","geometry":{"type":"Polygon","coordinates":[[[9.394844055175781,12.22655963897705],[9.468775749206543,12.234550476074219],[9.478416442871094,12.161820411682129],[9.481962203979492,12.065779685974121],[9.480667114257812,12.002750396728516],[9.482346534729004,11.975689888000488],[9.488198280334473,11.881449699401855],[9.489535331726074,11.859919548034668],[9.492551803588867,11.751970291137695],[9.3436918258667,11.734999656677246],[9.200423240661621,11.767109870910645],[9.084967613220215,11.792989730834961],[9.090069770812988,11.873970031738281],[9.093652725219727,11.930830001831055],[9.098085403442383,12.025779724121094],[9.100104331970215,12.063579559326172],[9.103628158569336,12.128439903259277],[9.115089416503906,12.158659934997559],[9.131059646606445,12.182160377502441],[9.25829792022705,12.203579902648926],[9.394844055175781,12.22655963897705]]]},"properties":{"id":28,"crime":56.919785,"centre":[9.297975780128176,11.977787924704433],"z":1.3158414430032448,"lag":0.7424548636503085,"local_i":0.9570150652901874,"p_sim":0.0049,"quadrant":1,"neighbors":[33,35,37,38,22,25,26,27,29]}},{"type":"Feature","geometry":{"type":"Polygon","coordinates":[[[9.116094589233398,12.17965030670166],[9.131059646606445,12.182160377502441],[9.115089416503906,12.158659934997559],[9.103628158569336,12.128439903259277],[9.100104331970215,12.063579559326172],[9.098085403442383,12.025779724121094],[9.093652725219727,11.930830001831055],[9.090069770812988,11.873970031738281],[9.084967613220215,11.792989730834961],[8.898137092590332,11.80247974395752],[8.868269920349121,12.013819694519043],[8.811333656311035,12.030810356140137],[8.813672065734863,12.06682014465332],[8.81535530090332,12.09276008605957],[8.790384292602539,12.10575008392334],[8.790392875671387,12.12572956085205],[8.95518970489502,12.153010368347168],[9.116094589233398,12.17965030670166]]]},"properties":{"id":29,"crime":60.750446,"centre":[8.977861502440566,11.994012072407754],"z":1.5471548978936849,"lag":1.0061206765813773,"local_i":1.5248566850399865,"p_sim":0.0011,"quadrant":1,"neighbors":[37,38,24,25,26,28,30]}},{"type":"Feature","geometry":{"type":"Polygon","coordinates":[[[8.643799781799316,12.102089881896973],[8.790392875671387,12.12572956085205],[8.790384292602539,12.10575008392334],[8.81535530090332,12.09276008605957],[8.813672065734863,12.06682014465332],[8.811333656311035,12.030810356140137],[8.868269920349121,12.013819694519043],[8.898137092590332,11.80247974395752],[8.8291654586792,11.80486011505127],[8.713337898254395,11.810020446777344],[8.618428230285645,11.80504035949707],[8.508537292480469,11.809040069580078],[8.386432647705078,11.785490036010742],[8.404298782348633,11.800470352172852],[8.412508010864258,11.807350158691406],[8.455998420715332,11.847610473632812],[8.471677780151367,11.863730430603027],[8.517660140991211,11.91471004486084],[8.525978088378906,11.924659729003906],[8.563572883605957,12.023850440979004],[8.544462203979492,12.073599815368652],[8.538623809814453,12.088789939880371],[8.643799781799316,12.102089881896973]]]},"properties":{"id":30,"crime":68.892044,"centre":[8.68871949319255,11.938718355531323],"z":2.0387831473548346,"lag":0.8118428609728549,"local_i":1.6213925321650196,"p_sim":0.0164,"quadrant":1,"neighbors":[21,37,24,25,29]}},{"type":"Feature","geometry":{"type":"Polygon","coordinates":[[[6.763313770294189,11.981120109558105],[6.942171096801758,12.0560302734375],[7.004114151000977,12.067009925842285],[7.078045845031738,12.076990127563477],[7.125000953674316,12.078980445861816],[7.185831069946289,11.84823989868164],[7.013006210327148,11.82621955871582],[6.741261005401611,11.799280166625977],[6.456532001495361,11.781330108642578],[6.674379825592041,11.931170463562012],[6.763313770294189,11.981120109558105]]]},"properties":{"id":31,"crime":17.677214,"centre":[6.8924823259937416,11.914150957988443],"z":-1.0538108642078066,"lag":-0.9662770496176858,"local_i":0.9974921659315429,"p_sim":0.0391,"quadrant":3,"neighbors":[34,36,39]}},{"type":"Feature","geometry":{"type":"Polygon","coordinates":[[[10.424249649047852,11.990639686584473],[10.640899658203125,12.0131196975708],[10.876319885253906,12.037540435791016],[10.886269569396973,11.946619987487793],[10.915240287780762,11.941619873046875],[10.932220458984375,11.938619613647461],[10.963190078735352,11.940620422363281],[10.983169555664062,11.936619758605957],[10.995160102844238,11.937620162963867],[11.045080184936523,11.853679656982422],[11.112970352172852,11.761759757995605],[11.204830169677734,11.638850212097168],[11.126910209655762,11.633870124816895],[11.073969841003418,11.65785026550293],[10.974069595336914,11.661860466003418],[10.952119827270508,11.72780990600586],[10.878219604492188,11.723259925842285],[10.806260108947754,11.718830108642578],[10.78335952758789,11.719550132751465],[10.766209602355957,11.720080375671387],[10.677379608154297,11.72284984588623],[10.656399726867676,11.72284984588623],[10.613459587097168,11.723299980163574],[10.560500144958496,11.723859786987305],[10.531530380249023,11.743849754333496],[10.425640106201172,11.741860389709473],[10.424249649047852,11.990639686584473]]]},"properties":{"id":32,"crime":19.145592,"centre":[10.76378352110245,11.844431047650396],"z":-0.965143245677972,"lag":-1.2846331798443813,"local_i":1.214551872686322,"p_sim":0.0025,"quadrant":3,"neighbors":[41,20,23,40]}},{"type":"Feature","geometry":{"type":"Polygon","coordinates":[[[9.480667114257812,12.002750396728516],[9.755396842956543,12.004929542541504],[10.007160186767578,12.009679794311523],[10.02422046661377,11.962309837341309],[10.04207992553711,11.912759780883789],[10.048910140991211,11.858799934387207],[10.04928970336914,11.822830200195312],[10.049750328063965,11.778960227966309],[10.049909591674805,11.76294994354248],[10.026479721069336,11.787699699401855],[9.986115455627441,11.802860260009766],[9.973393440246582,11.809060096740723],[9.925159454345703,11.82384967803955],[9.877091407775879,11.8441801071167],[9.859211921691895,11.851739883422852],[9.831770896911621,11.858819961547852],[9.800299644470215,11.866829872131348],[9.6394681930542,11.863249778747559],[9.489535331726074,11.859919548034668],[9.488198280334473,11.881449699401855],[9.482346534729004,11.975689888000488],[9.480667114257812,12.002750396728516]]]},"properties":{"id":33,"crime":41.968163,"centre":[9.783876039871148,11.922708164579584],"z":0.4129916891263258,"lag":0.12979350992906805,"local_i":0.0525096890480722,"p_sim":0.3841,"quadrant":1,"neighbors":[27,28,35,20]}},{"type":"Feature","geometry":{"type":"Polygon","coordinates":[[[7.185831069946289,11.84823989868164],[7.317720890045166,11.856149673461914],[7.508541107177734,11.872119903564453],[7.484549999237061,11.838150024414062],[7.463559150695801,11.80918025970459],[7.469532012939453,11.757220268249512],[7.493495941162109,11.728249549865723],[7.492452144622803,11.619339942932129],[7.688279151916504,11.66327953338623],[7.733179092407227,11.527389526367188],[7.710183143615723,11.482439994812012],[7.674202919006348,11.446470260620117],[7.624241828918457,11.421500205993652],[7.562289237976074,11.388540267944336],[7.468363761901855,11.349579811096191],[7.398374080657959,11.329950332641602],[7.375504970550537,11.471489906311035],[7.315611839294434,11.586389541625977],[7.123810768127441,11.530790328979492],[6.9848952293396,11.490519523620605],[6.971885204315186,11.633569717407227],[6.966993808746338,11.687350273132324],[7.019946098327637,11.695340156555176],[7.013006210327148,11.82621955871582],[7.185831069946289,11.84823989868164]]]},"properties":{"id":34,"crime":23.974028,"centre":[7.33943071762272,11.628545121558876],"z":-0.6735794103823463,"lag":-0.7844967814030404,"local_i":0.5176367798834043,"p_sim":0.0528,"quadrant":3,"neighbors":[42,36,21,31]}},{"type":"Feature","geometry":{"type":"Polygon","coordinates":[[[9.489535331726074,11.859919548034668],[9.6394681930542,11.863249778747559],[9.800299644470215,11.866829872131348],[9.831770896911621,11.858819961547852],[9.859211921691895,11.851739883422852],[9.877091407775879,11.8441801071167],[9.925159454345703,11.82384967803955],[9.973393440246582,11.809060096740723],[9.986115455627441,11.802860260009766],[10.026479721069336,11.787699699401855],[10.049909591674805,11.76294994354248],[10.05659008026123,11.74390983581543],[9.917131423950195,11.737930297851562],[9.918045997619629,11.531109809875488],[9.500506401062012,11.542019844055176],[9.341614723205566,11.546170234680176],[9.3436918258667,11.734999656677246],[9.492551803588867,11.751970291137695],[9.489535331726074,11.859919548034668]]]},"properties":{"id":35,"crime":39.175053,"centre":[9.668248963690393,11.692541207168867],"z":0.24433047791785892,"lag":-0.12259749385220092,"local_i":-0.029342991932512684,"p_sim":0.3732,"quadrant":4,"neighbors":[33,20,38,40,28,43,44]}},{"type":"Feature","geometry":{"type":"Polygon","coordinates":[[[6.741261005401611,11.799280166625977],[7.013006210327148,11.82621955871582],[7.019946098327637,11.695340156555176],[6.966993808746338,11.687350273132324],[6.971885204315186,11.633569717407227],[6.9848952293396,11.490519523620605],[6.891400814056396,11.479410171508789],[6.77780818939209,11.465909957885742],[6.758334159851074,11.462329864501953],[6.678176879882812,11.447600364685059],[6.61027717590332,11.444780349731445],[6.558311939239502,11.44219970703125],[6.481366157531738,11.439629554748535],[6.456532001495361,11.781330108642578],[6.741261005401611,11.799280166625977]]]},"properties":{"id":36,"crime":14.305556,"centre":[6.728837547719331,11.634364976122036],"z":-1.2574075439163457,"lag":-0.9887347409741386,"local_i":1.217870225860953,"p_sim":0.0076,"quadrant":3,"neighbors":[34,39,42,46,31]}},{"type":"Feature","geometry":{"type":"Polygon","coordinates":[[[8.713337898254395,11.810020446777344],[8.8291654586792,11.80486011505127],[8.898137092590332,11.80247974395752],[9.084967613220215,11.792989730834961],[9.085843086242676,11.639080047607422],[9.09585952758789,11.559189796447754],[9.082836151123047,11.456330299377441],[9.000834465026855,11.458020210266113],[8.935976028442383,11.46030044555664],[8.922977447509766,11.434320449829102],[8.77213191986084,11.450329780578613],[8.713337898254395,11.810020446777344]]]},"properties":{"id":37,"crime":42.445076,"centre":[8.912362855719714,11.630310543083501],"z":0.4417899549379351,"lag":0.9580276917489394,"local_i":0.41460931666977113,"p_sim":0.0056,"quadrant":1,"neighbors":[38,43,28,29,30,45]}},{"type":"Feature","geometry":{"type":"Polygon","coordinates":[[[9.084967613220215,11.792989730834961],[9.200423240661621,11.767109870910645],[9.3436918258667,11.734999656677246],[9.341614723205566,11.546170234680176],[9.20775318145752,11.55325984954834],[9.09585952758789,11.559189796447754],[9.085843086242676,11.639080047607422],[9.084967613220215,11.792989730834961]]]},"properties":{"id":38,"crime":53.710938,"centre":[9.210527335403754,11.659838850006437],"z":1.122076062619853,"lag":0.5147123641454059,"local_i":0.5657597612493386,"p_sim":0.0838,"quadrant":1,"neighbors":[35,37,44,43,28,29]}},{"type":"Feature","geometry":{"type":"Polygon","coordinates":[[[6.181705951690674,11.553569793701172],[6.394561767578125,11.710399627685547],[6.456532001495361,11.781330108642578],[6.481366157531738,11.439629554748535],[6.33650016784668,11.420660018920898],[6.335865020751953,11.39568042755127],[6.335484027862549,11.38070011138916],[6.356451034545898,11.349720001220703],[6.359416007995605,11.27379035949707],[6.316442012786865,11.232830047607422],[6.167585849761963,11.230850219726562],[6.179293155670166,11.18159008026123],[6.180611133575439,11.167719841003418],[6.212475776672363,11.122119903564453],[6.220479965209961,11.099960327148438],[6.220462799072266,11.057000160217285],[6.088609218597412,11.097979545593262],[6.088623046875,11.132949829101562],[6.084632873535156,11.148940086364746],[6.085638046264648,11.160920143127441],[6.035704135894775,11.202890396118164],[5.984754085540771,11.203900337219238],[5.948803901672363,11.239870071411133],[5.96979284286499,11.263850212097168],[5.970815181732178,11.31779956817627],[5.87490701675415,11.313819885253906],[6.181705951690674,11.553569793701172]]]},"properties":{"id":39,"crime":19.100863,"centre":[6.221942933898136,11.402513578924117],"z":-0.9678441945543655,"lag":-1.144757100767347,"local_i":1.0853353608025116,"p_sim":0.0167,"quadrant":3,"neighbors":[36,46,31]}},{"type":"Feature","geometry":{"type":"Polygon","coordinates":[[[10.05659008026123,11.74390983581543],[10.252799987792969,11.742819786071777],[10.425640106201172,11.741860389709473],[10.531530380249023,11.743849754333496],[10.560500144958496,11.723859786987305],[10.613459587097168,11.723299980163574],[10.656399726867676,11.72284984588623],[10.677379608154297,11.72284984588623],[10.766209602355957,11.720080375671387],[10.78335952758789,11.719550132751465],[10.806260108947754,11.718830108642578],[10.802240371704102,11.674869537353516],[10.80321979522705,11.661589622497559],[10.806090354919434,11.620909690856934],[10.808199882507324,11.590950012207031],[10.808690071105957,11.57466983795166],[10.804929733276367,11.558989524841309],[10.799189567565918,11.53499984741211],[10.802140235900879,11.434080123901367],[10.8020601272583,11.232259750366211],[10.73412036895752,11.228269577026367],[10.687170028686523,11.2222900390625],[10.613240242004395,11.216300010681152],[10.595250129699707,11.213310241699219],[10.555290222167969,11.22029972076416],[10.480369567871094,11.221309661865234],[10.421429634094238,11.23231029510498],[10.364489555358887,11.254300117492676],[10.343520164489746,11.272279739379883],[10.329560279846191,11.328240394592285],[10.320590019226074,11.369199752807617],[10.279640197753906,11.403180122375488],[10.226710319519043,11.45613956451416],[10.168800354003906,11.523090362548828],[10.109880447387695,11.5900297164917],[10.07094955444336,11.67197036743164],[10.05659008026123,11.74390983581543]]]},"properties":{"id":40,"crime":16.241299,"centre":[10.492492572016708,11.507197282569432],"z":-1.140518213038467,"lag":-0.849874955126874,"local_i":0.9495162760432163,"p_sim":0.0187,"quadrant":3,"neighbors":[35,20,41,47,32]}},{"type":"Feature","geometry":{"type":"Polygon","coordinates":[[[10.806260108947754,11.718830108642578],[10.878219604492188,11.723259925842285],[10.952119827270508,11.72780990600586],[10.974069595336914,11.661860466003418],[11.073969841003418,11.65785026550293],[11.126910209655762,11.633870124816895],[11.126890182495117,11.59589958190918],[11.138870239257812,11.56991958618164],[11.139849662780762,11.530960083007812],[11.141839981079102,11.505979537963867],[11.12285041809082,11.492989540100098],[11.122790336608887,11.336130142211914],[11.122209548950195,11.315879821777344],[11.098469734191895,11.303170204162598],[11.078960418701172,11.295280456542969],[11.06859016418457,11.2918701171875],[11.014869689941406,11.274200439453125],[10.963910102844238,11.265210151672363],[10.919949531555176,11.254229545593262],[10.901860237121582,11.252129554748535],[10.8774995803833,11.246870040893555],[10.840740203857422,11.238940238952637],[10.818880081176758,11.235170364379883],[10.8020601272583,11.232259750366211],[10.802140235900879,11.434080123901367],[10.799189567565918,11.53499984741211],[10.804929733276367,11.558989524841309],[10.808690071105957,11.57466983795166],[10.808199882507324,11.590950012207031],[10.806090354919434,11.620909690856934],[10.80321979522705,11.661589622497559],[10.802240371704102,11.674869537353516],[10.806260108947754,11.718830108642578]]]},"properties":{"id":41,"crime":18.905146,"centre":[10.95358743637645,11.479245868637376],"z":-0.9796625140169316,"lag":-0.848943367592563,"local_i":0.8147049734730423,"p_sim":0.0613,"quadrant":3,"neighbors":[32,47,40]}},{"type":"Feature","geometry":{"type":"Polygon","coordinates":[[[6.758334159851074,11.462329864501953],[6.77780818939209,11.465909957885742],[6.891400814056396,11.479410171508789],[6.9848952293396,11.490519523620605],[7.123810768127441,11.530790328979492],[7.315611839294434,11.586389541625977],[7.375504970550537,11.471489906311035],[7.398374080657959,11.329950332641602],[7.404403209686279,11.29263973236084],[7.38238000869751,11.18474006652832],[7.359377861022949,11.12479019165039],[7.327386856079102,11.071849822998047],[7.275406837463379,10.997920036315918],[6.82789421081543,11.116869926452637],[6.879881858825684,11.211779594421387],[6.81195592880249,11.22877025604248],[6.83095121383667,11.262740135192871],[6.771010875701904,11.26574993133545],[6.75403881072998,11.292719841003418],[6.78602123260498,11.325690269470215],[6.778051853179932,11.380640029907227],[6.758076190948486,11.392629623413086],[6.758334159851074,11.462329864501953]]]},"properties":{"id":42,"crime":16.49189,"centre":[7.1100509053908985,11.295438892865233],"z":-1.1253863415482854,"lag":-0.965493477149346,"local_i":1.0643786175064516,"p_sim":0.0806,"quadrant":3,"neighbors":[34,36]}},{"type":"Feature","geometry":{"type":"Polygon","coordinates":[[[9.09585952758789,11.559189796447754],[9.20775318145752,11.55325984954834],[9.341614723205566,11.546170234680176],[9.338521957397461,11.312379837036133],[9.207670211791992,11.31017017364502],[9.10374927520752,11.308409690856934],[9.082836151123047,11.456330299377441],[9.09585952758789,11.559189796447754]]]},"properties":{"id":43,"crime":36.663612,"centre":[9.214330280393483,11.432771789368283],"z":0.09267777503877321,"lag":0.062338591394346346,"local_i":0.005659495787244966,"p_sim":0.4381,"quadrant":1,"neighbors":[35,37,38,44,45,48]}},{"type":"Feature","geometry":{"type":"Polygon","coordinates":[[[9.341614723205566,11.546170234680176],[9.500506401062012,11.542019844055176],[9.918045997619629,11.531109809875488],[9.963891983032227,11.268340110778809],[9.778072357177734,11.265359878540039],[9.776052474975586,11.211409568786621],[9.656153678894043,11.212479591369629],[9.5482759475708,11.21343994140625],[9.546306610107422,11.285369873046875],[9.391454696655273,11.275400161743164],[9.335508346557617,11.27241039276123],[9.338521957397461,11.312379837036133],[9.341614723205566,11.546170234680176]]]},"properties":{"id":44,"crime":25.962263,"centre":[9.641904437882928,11.391036212262494],"z":-0.5535203639190611,"lag":0.03734482564588615,"local_i":-0.020249261859923064,"p_sim":0.4794,"quadrant":2,"neighbors":[49,35,38,43,48]}},{"type":"Feature","geometry":{"type":"Polygon","coordinates":[[[9.000834465026855,11.458020210266113],[9.082836151123047,11.456330299377441],[9.10374927520752,11.308409690856934],[9.111679077148438,11.157540321350098],[9.107674598693848,11.135560035705566],[9.098838806152344,11.115389823913574],[9.093674659729004,11.10359001159668],[9.171592712402344,11.09158992767334],[9.174186706542969,11.060310363769531],[9.175572395324707,11.048629760742188],[9.178548812866211,10.999670028686523],[9.146570205688477,10.976699829101562],[9.135557174682617,10.917750358581543],[9.10042953491211,10.899089813232422],[9.095559120178223,10.828829765319824],[8.85079574584961,10.821869850158691],[8.815848350524902,10.867839813232422],[8.789886474609375,10.899809837341309],[8.7659273147583,10.938779830932617],[8.752955436706543,10.978750228881836],[8.747973442077637,11.010720252990723],[8.753978729248047,11.035699844360352],[8.750991821289062,11.060669898986816],[8.622117042541504,11.059690475463867],[8.631120681762695,11.089659690856934],[8.634133338928223,11.126629829406738],[8.63216495513916,11.199569702148438],[8.665151596069336,11.246520042419434],[8.68313980102539,11.2575101852417],[8.69713020324707,11.267499923706055],[8.67520809173584,11.405380249023438],[8.77213191986084,11.450329780578613],[8.922977447509766,11.434320449829102],[8.935976028442383,11.46030044555664],[9.000834465026855,11.458020210266113]]]},"properties":{"id":45,"crime":29.028488,"centre":[8.910340473827835,11.148639078569653],"z":-0.3683671754167531,"lag":-0.1844731143425865,"local_i":0.06656702700804278,"p_sim":0.3456,"quadrant":3,"neighbors":[49,43,37,48]}},{"type":"Feature","geometry":{"type":"Polygon","coordinates":[[[6.481366157531738,11.439629554748535],[6.558311939239502,11.44219970703125],[6.61027717590332,11.444780349731445],[6.678176879882812,11.447600364685059],[6.649185180664062,11.399640083312988],[6.647164821624756,11.344690322875977],[6.639161109924316,11.315719604492188],[6.522275924682617,11.318730354309082],[6.520257949829102,11.269769668579102],[6.516248226165771,11.236800193786621],[6.542212009429932,11.209819793701172],[6.549192905426025,11.1808500289917],[6.55515718460083,11.10791015625],[6.534173011779785,11.096920013427734],[6.537120819091797,10.97803020477295],[6.220462799072266,11.057000160217285],[6.220479965209961,11.099960327148438],[6.212475776672363,11.122119903564453],[6.180611133575439,11.167719841003418],[6.179293155670166,11.18159008026123],[6.167585849761963,11.230850219726562],[6.316442012786865,11.232830047607422],[6.359416007995605,11.27379035949707],[6.356451034545898,11.349720001220703],[6.335484027862549,11.38070011138916],[6.335865020751953,11.39568042755127],[6.33650016784668,11.420660018920898],[6.481366157531738,11.439629554748535]]]},"properties":{"id":46,"crime":16.530533,"centre":[6.423385031583336,11.219238093398321],"z":-1.1230528941778888,"lag":-1.1126258692353557,"local_i":1.2240369331415077,"p_sim":0.0484,"quadrant":3,"neighbors":[36,39]}},{"type":"Feature","geometry":{"type":"Polygon","coordinates":[[[11.098469734191895,11.303170204162598],[11.122209548950195,11.315879821777344],[11.120759963989258,11.265190124511719],[11.119729995727539,11.199250221252441],[11.123700141906738,11.127309799194336],[11.14465045928955,11.05636978149414],[11.181599617004395,11.025400161743164],[11.221540451049805,10.978429794311523],[11.256489753723145,10.922479629516602],[11.275449752807617,10.888500213623047],[11.287420272827148,10.84253978729248],[11.286399841308594,10.790590286254883],[11.013669967651367,10.788629531860352],[10.963720321655273,10.799619674682617],[10.88379955291748,10.80762004852295],[10.781900405883789,10.812629699707031],[10.708979606628418,10.819640159606934],[10.694000244140625,10.833629608154297],[10.649069786071777,10.890580177307129],[10.616109848022461,10.925559997558594],[10.588159561157227,10.978509902954102],[10.592169761657715,10.994500160217285],[10.691129684448242,11.140359878540039],[10.687170028686523,11.2222900390625],[10.73412036895752,11.228269577026367],[10.8020601272583,11.232259750366211],[10.818880081176758,11.235170364379883],[10.840740203857422,11.238940238952637],[10.8774995803833,11.246870040893555],[10.901860237121582,11.252129554748535],[10.919949531555176,11.254229545593262],[10.963910102844238,11.265210151672363],[11.014869689941406,11.274200439453125],[11.06859016418457,11.2918701171875],[11.078960418701172,11.295280456542969],[11.098469734191895,11.303170204162598]]]},"properties":{"id":47,"crime":27.822861,"centre":[10.935302271773978,11.010030663664562],"z":-0.4411686440612499,"lag":-1.0600903635276993,"local_i":0.45813416645869,"p_sim":0.0641,"quadrant":3,"neighbors":[41,40]}},{"type":"Feature","geometry":{"type":"Polygon","coordinates":[[[9.207670211791992,11.31017017364502],[9.338521957397461,11.312379837036133],[9.335508346557617,11.27241039276123],[9.391454696655273,11.275400161743164],[9.39303207397461,11.262740135192871],[9.393250465393066,11.251399993896484],[9.3948974609375,11.165470123291016],[9.39454460144043,11.139530181884766],[9.393360137939453,11.052599906921387],[9.282283782958984,11.048029899597168],[9.175572395324707,11.048629760742188],[9.174186706542969,11.060310363769531],[9.171592712402344,11.09158992767334],[9.093674659729004,11.10359001159668],[9.098838806152344,11.115389823913574],[9.107674598693848,11.135560035705566],[9.111679077148438,11.157540321350098],[9.10374927520752,11.308409690856934],[9.207670211791992,11.31017017364502]]]},"properties":{"id":48,"crime":26.645266,"centre":[9.251957402833792,11.181253873699427],"z":-0.5122774077737549,"lag":-0.3973231359675852,"local_i":0.19938579540442164,"p_sim":0.2031,"quadrant":3,"neighbors":[49,43,44,45]}},{"type":"Feature","geometry":{"type":"Polygon","coordinates":[[[9.391454696655273,11.275400161743164],[9.546306610107422,11.285369873046875],[9.5482759475708,11.21343994140625],[9.656153678894043,11.212479591369629],[9.776052474975586,11.211409568786621],[9.779011726379395,11.118490219116211],[9.774969100952148,11.007590293884277],[9.775935173034668,10.92866039276123],[9.78189754486084,10.853730201721191],[9.095559120178223,10.828829765319824],[9.10042953491211,10.899089813232422],[9.135557174682617,10.917750358581543],[9.146570205688477,10.976699829101562],[9.178548812866211,10.999670028686523],[9.175572395324707,11.048629760742188],[9.282283782958984,11.048029899597168],[9.393360137939453,11.052599906921387],[9.39454460144043,11.139530181884766],[9.3948974609375,11.165470123291016],[9.393250465393066,11.251399993896484],[9.39303207397461,11.262740135192871],[9.391454696655273,11.275400161743164]]]},"properties":{"id":49,"crime":22.541491,"centre":[9.492143530360028,11.014961106511862],"z":-0.7600827795732995,"lag":-0.47805498236985633,"local_i":0.3559458218336769,"p_sim":0.1929,"quadrant":3,"neighbors":[44,45,48]}}],"coordinate_note":"Original digitised example coordinates, no claimed metric CRS or scale bar"}
